ONEWEB-0589             
1 54655U 22166P   26163.27654545  .00000037  00000+0  58674-4 0  9991
2 54655  87.9251 244.9583 0002548  81.6077 278.5346 13.21824104170898
ONEWEB-0590             
1 54656U 22166Q   26163.22595918  .00000067  00000+0  13109-3 0  9991
2 54656  87.9262 244.9582 0002474 102.4699 257.6712 13.21826952170876
ONEWEB-0591             
1 54657U 22166R   26163.23787916  .00000022  00000+0  20566-4 0  9991
2 54657  87.9253 244.9707 0002105  99.5196 260.6176 13.21825863170907
ONEWEB-0592             
1 54658U 22166S   26163.24123286  .00000114  00000+0  24467-3 0  9992
2 54658  87.9262 244.9477 0002037  99.1056 261.0309 13.21827084170783
ONEWEB-0593             
1 54659U 22166T   26163.18738674  .00000123  00000+0  26749-3 0  9994
2 54659  87.9256 244.9707 0001953  94.4060 265.7297 13.21827734170882
ONEWEB-0594             
1 54660U 22166U   26163.28328848 -.00000708  00000+0 -17450-2 0  9994
2 54660  87.9257 244.9681 0002018 101.3870 258.7491 13.21816575170919
ONEWEB-0595             
1 54661U 22166V   26163.25973244  .00000079  00000+0  15937-3 0  9996
2 54661  87.9262 244.9529 0002072 106.4271 253.7091 13.21827116170888
ONEWEB-0596             
1 54662U 22166W   26163.31020645  .00000045  00000+0  78350-4 0  9994
2 54662  87.9255 244.9545 0002044 102.1932 257.9431 13.21826247170894
ONEWEB-0597             
1 54663U 22166X   26163.21600521  .00000018  00000+0  11440-4 0  9998
2 54663  87.9252 244.9765 0002042  95.8596 264.2771 13.21826328170885
ONEWEB-0600             
1 54664U 22166Y   26163.27317891  .00000055  00000+0  10178-3 0  9997
2 54664  87.9254 244.9566 0001868  95.9200 264.2147 13.21824213170861
ONEWEB-0601             
1 54665U 22166Z   26163.26477873  .00000031  00000+0  42762-4 0  9993
2 54665  87.9255 244.9744 0002157  92.8296 267.3085 13.21825836171053
ONEWEB-0602             
1 54666U 22166AA  26163.23029646  .00000066  00000+0  12937-3 0  9990
2 54666  87.9253 244.9871 0001795  94.1225 266.0114 13.21826287170898
ONEWEB-0603             
1 54667U 22166AB  26163.23619380  .00000054  00000+0  99045-4 0  9994
2 54667  87.9262 244.9424 0002000  96.2209 263.9153 13.21826575170820
ONEWEB-0604             
1 54668U 22166AC  26163.22440771  .00000052  00000+0  95255-4 0  9997
2 54668  87.9264 244.9604 0002000 101.5233 258.6125 13.21827826170785
ONEWEB-0605             
1 54669U 22166AD  26163.29338871 -.00000010  00000+0 -56216-4 0  9992
2 54669  87.9254 244.9605 0002587  92.3662 267.7769 13.21826146170867
ONEWEB-0606             
1 54670U 22166AE  26163.23955660  .00000053  00000+0  96673-4 0  9995
2 54670  87.9254 244.9837 0001991 104.4569 255.6786 13.21826331170912
ONEWEB-0607             
1 54671U 22166AF  26163.28159034  .00000012  00000+0 -16726-5 0  9990
2 54671  87.9263 244.9460 0001955  94.3865 265.7492 13.21824084170897
ONEWEB-0608             
1 54672U 22166AG  26163.21263017  .00000032  00000+0  45868-4 0  9990
2 54672  87.9264 244.9563 0002368  88.3463 271.7943 13.21827885170899
ONEWEB-0610             
1 54673U 22166AH  26163.26813354  .00000082  00000+0  16659-3 0  9991
2 54673  87.9253 244.9600 0002192  82.6868 277.4515 13.21823806170809
ONEWEB-0611             
1 54674U 22166AJ  26163.26140239  .00000071  00000+0  14005-3 0  9998
2 54674  87.9253 244.9573 0002036 103.2288 256.9073 13.21827619170797
ONEWEB-0612             
1 54675U 22166AK  26163.27487364  .00000051  00000+0  91405-4 0  9991
2 54675  87.9265 244.9496 0002095  95.0167 265.1206 13.21824799170789
ONEWEB-0615             
1 54676U 22166AL  26163.25469642  .00000147  00000+0  32556-3 0  9996
2 54676  87.9256 244.9688 0001840 105.1166 255.0172 13.21826571170793
ONEWEB-0655             
1 54677U 22166AM  26163.23114521  .00000046  00000+0  79584-4 0  9999
2 54677  87.9254 244.9746 0001845  93.6367 266.4978 13.21826582170787
ONEWEB-0659             
1 54678U 22166AN  26163.24796625  .00000077  00000+0  15442-3 0  9998
2 54678  87.9253 244.9712 0002073 101.7207 258.4160 13.21827820170878
ONEWEB-0685             
1 54679U 22166AP  26163.24812902  .00000096  00000+0  20050-3 0  9998
2 54679  87.9252 244.9636 0002081  89.1369 271.0003 13.21847391170760
ONEWEB-0712             
1 54680U 22166AQ  26163.19621418  .00000053  00000+0  10413-3 0  9999
2 54680  87.9102 229.7653 0001639  89.8379 270.2940 13.16594377171402
ONEWEB-0714             
1 54681U 22166AR  26163.25299132  .00000114  00000+0  24571-3 0  9999
2 54681  87.9254 244.9598 0001731  97.3458 262.7872 13.21824336170881
ONEWEB-0532             
1 55140U 23004A   26163.09749309  .00000049  00000+0  93340-4 0  9998
2 55140  87.9135   6.8774 0002205  89.6596 270.4789 13.17648390166916
ONEWEB-0533             
1 55141U 23004B   26163.27328580  .00000383  00000+0  10284-2 0  9998
2 55141  87.8943 351.6481 0001868  83.8445 276.2896 13.12444117167417
ONEWEB-0541             
1 55142U 23004C   26163.14671532  .00000398  00000+0  10868-2 0  9997
2 55142  87.8897  22.0609 0001842  90.2524 269.8815 13.11417127165281
ONEWEB-0543             
1 55143U 23004D   26163.23189660  .00000021  00000+0  21698-4 0  9992
2 55143  87.9158 336.4560 0001614  89.6148 270.5169 13.18684764169041
ONEWEB-0544             
1 55144U 23004E   26163.22515479  .00000066  00000+0  13393-3 0  9994
2 55144  87.9156 336.4572 0001694  97.3243 262.8081 13.18685506169045
ONEWEB-0560             
1 55145U 23004F   26163.21841299  .00000069  00000+0  14324-3 0  9994
2 55145  87.9157 336.4478 0001586  97.1591 262.9722 13.18686408169052
ONEWEB-0565             
1 55146U 23004G   26163.21166639  .00000074  00000+0  15548-3 0  9998
2 55146  87.9147 336.4776 0001973 104.5542 255.5809 13.18685032169047
ONEWEB-0567             
1 55147U 23004H   26163.20492633  .00000065  00000+0  13167-3 0  9999
2 55147  87.9158 336.4626 0001832 104.0085 256.1251 13.18685533169049
ONEWEB-0569             
1 55148U 23004J   26163.13275740  .00000221  00000+0  56980-3 0  9994
2 55148  87.8957 321.2258 0001380 124.8578 235.2681 13.13469523169515
ONEWEB-0570             
1 55149U 23004K   26163.19648272  .00000066  00000+0  13512-3 0  9996
2 55149  87.9156 336.4620 0002237  96.0977 264.0410 13.18685367169032
ONEWEB-0571             
1 55150U 23004L   26163.18975161  .00000000  00000+0 -32174-4 0  9992
2 55150  87.9156 336.4626 0002013 129.8988 230.2321 13.18687937169041
ONEWEB-0572             
1 55151U 23004M   26163.12786482  .00000036  00000+0  60683-4 0  9997
2 55151  87.9135   6.8724 0001907  93.7963 266.3386 13.17648306166818
ONEWEB-0573             
1 55152U 23004N   26163.18299884  .00000024  00000+0  27041-4 0  9997
2 55152  87.9159 336.4652 0002036 117.6444 242.4895 13.18686488169032
ONEWEB-0588             
1 55153U 23004P   26163.17625142 -.00000002  00000+0 -36645-4 0  9995
2 55153  87.9156 336.4670 0002296  98.2351 261.9041 13.18685074169038
ONEWEB-0598             
1 55154U 23004Q   26163.12467325  .00000379  00000+0  10340-2 0  9995
2 55154  87.8888  22.0768 0001498 107.9744 252.1547 13.11419212165236
ONEWEB-0599             
1 55155U 23004R   26163.08905570  .00000063  00000+0  12874-3 0  9995
2 55155  87.9135   6.8785 0001607  87.0636 273.0680 13.17648636166817
ONEWEB-0614             
1 55156U 23004S   26163.11957742  .00000211  00000+0  56083-3 0  9993
2 55156  87.8890  22.0866 0002020  82.3305 277.8052 13.11420046165176
ONEWEB-0616             
1 55157U 23004T   26163.28312091 -.00000034  00000+0 -12110-3 0  9992
2 55157  87.9137   6.8435 0001094  66.8042 293.3205 13.17648301167053
ONEWEB-0617             
1 55158U 23004U   26163.10771259 -.00000311  00000+0 -91274-3 0  9995
2 55158  87.8895  22.0797 0002245  86.7193 273.4191 13.11418948165194
ONEWEB-0618             
1 55159U 23004V   26163.29705361  .00003690  00000+0  20642-3 0  9999
2 55159  86.9097 179.6196 0010270 322.7438  37.3088 15.13107704181529
ONEWEB-0619             
1 55160U 23004W   26163.08737500  .00000081  00000+0  17522-3 0  9992
2 55160  87.9146   6.8626 0002017  75.8953 284.2403 13.17648773166923
ONEWEB-0620             
1 55161U 23004X   26163.10261023 -.00000395  00000+0 -11514-2 0  9992
2 55161  87.8889  22.0896 0001839  93.4506 266.6832 13.11419435165167
ONEWEB-0621             
1 55162U 23004Y   26163.12975856  .00000571  00000+0  15764-2 0  9996
2 55162  87.8898  22.0724 0002022  81.4116 278.7241 13.11418912165142
ONEWEB-0622             
1 55163U 23004Z   26163.13485103  .00000603  00000+0  16661-2 0  9992
2 55163  87.8900  22.0738 0002520  91.5061 268.6356 13.11417720165136
ONEWEB-0623             
1 55164U 23004AA  26163.08230652 -.00000024  00000+0 -95322-4 0  9996
2 55164  87.9131   6.8946 0002589  80.6437 279.4987 13.17649162166916
ONEWEB-0624             
1 55165U 23004AB  26163.01267679 -.00000301  00000+0 -86536-3 0  9993
2 55165  87.8944 351.6153 0001898  87.9181 272.2165 13.12928453167397
ONEWEB-0625             
1 55166U 23004AC  26163.07218855  .00000015  00000+0  48695-5 0  9998
2 55166  87.9134   6.8922 0001747  83.5941 276.5389 13.17648604166905
ONEWEB-0626             
1 55167U 23004AD  26163.06206719 -.00000015  00000+0 -71586-4 0  9990
2 55167  87.9136   6.8938 0001789 100.9835 259.1498 13.17649162166905
ONEWEB-0627             
1 55168U 23004AE  26163.05023996  .00000016  00000+0  79842-5 0  9997
2 55168  87.9136   6.8963 0002336  82.3295 277.8102 13.17648017166903
ONEWEB-0628             
1 55169U 23004AF  26163.22090232  .00000096  00000+0  23211-3 0  9999
2 55169  87.8946 351.6407 0002418  80.1276 280.0125 13.12442932167389
ONEWEB-0629             
1 55170U 23004AG  26163.25357340 -.00000192  00000+0 -52732-3 0  9999
2 55170  87.9133   6.8520 0001945  78.1962 281.9388 13.17649052166936
ONEWEB-0631             
1 55171U 23004AH  26163.24538238  .00000054  00000+0  10367-3 0  9999
2 55171  87.9167 336.4189 0002155 104.2101 255.9271 13.18684973169024
